Skip Page Navigation
NASA Logo - Jet Propulsion Laboratory				+ View the NASA Portal
+ Center for Near-Earth Object Studies			
JPL Home	Earth	Solar System	Stars & Galaxies	Technology

JPL Solar System Dynamics
BODIES		ORBITS		EPHEMERIDES		TOOLS		PHYSICAL DATA		DISCOVERY		FAQ		SITE MAP

IMPORTANT: The SSD Announcement email list is now available. Major changes are coming in the near future, including possible hostname and/or URL changes. To be notified of such changes, subscribe to this email list.

Please visit this page for more details.


Don't show this message again
HORIZONS Web-Interface
This tool provides a web-based limited interface to JPL's HORIZONS system which can be used to generate ephemerides for solar-system bodies. Full access to HORIZONS features is available via the primary telnet interface. HORIZONS system news shows recent changes and improvements. A web-interface tutorial is available to assist new users.
Current Settings
Ephemeris Type [change] : 	ELEMENTS
Target Body [change] : 	Deimos (MII) [402]
Center [change] : 	Mars Barycenter [500@4]
Time Span [change] : 	Start=JD 2458850.0, Stop=JD 2464329.0, Intervals=500
Table Settings [change] : 	CSV format=YES
Display/Output [change] : 	default (formatted HTML)
Object Data Page
 Revised: Sep 28, 2012             Deimos / (Mars)                          402

 SATELLITE PHYSICAL PROPERTIES:
  Radius (km)             = 7.8 x 6.0 x 5.1 Density (g cm^-3)   =  1.76 +- 0.30
  Mass (10^20 kg )        = 1.80 (10^-5)    Geometric Albedo    =  0.06 
                               (+- 0.15)    V(1,0)              = +12.89

 SATELLITE ORBITAL DATA:
  Semi-major axis, a (km) = 23.4632(10^3)   Orbital period      = 1.263 d
  Eccentricity, e         =  0.00033        Rotational period   = Synchronous
  Inclination, i  (deg)   =  1.791
Results
*******************************************************************************
Ephemeris / WWW_USER Fri May 15 20:05:18 2020 Pasadena, USA      / Horizons    
*******************************************************************************
Target body name: Deimos (402)                    {source: mar097}
Center body name: Mars Barycenter (4)             {source: mar097}
Center-site name: BODY CENTER
*******************************************************************************
Start time      : A.D. 2020-Jan-01 12:00:00.0000 TDB
Stop  time      : A.D. 2035-Jan-01 12:00:00.0000 TDB
Step-size       : 500 steps
*******************************************************************************
Center geodetic : 0.00000000,0.00000000,0.0000000 {E-lon(deg),Lat(deg),Alt(km)}
Center cylindric: 0.00000000,0.00000000,0.0000000 {E-lon(deg),Dxy(km),Dz(km)}
Center radii    : (undefined)                                                  
Keplerian GM    : 9.5495486312305554E-11 au^3/d^2
Output units    : AU-D, deg, Julian Day Number (Tp)                            
Output type     : GEOMETRIC osculating elements
Output format   : 10
Reference frame : ICRF/J2000.0                                                 
Coordinate systm: Ecliptic and Mean Equinox of Reference Epoch                 
*******************************************************************************
            JDTDB,            Calendar Date (TDB),                     EC,                     QR,                     IN,                     OM,                      W,                     Tp,                      N,                     MA,                     TA,                      A,                     AD,                     PR,
**************************************************************************************************************************************************************************************************************************************************************************************************************************************************
$$SOE
2462794.880000000, A.D. 2030-Oct-20 09:07:12.0000,  2.876450350238316E-04,  1.567632902261658E-04,  2.406233841722957E+01,  8.359145130811558E+01,  4.518024588609182E+01,  2.462795269822556E+06,  2.851412759798231E+02,  2.488454992590181E+02,  2.488147628219643E+02,  1.568083953825476E-04,  1.568535005389295E-04,  1.262532051043616E+00,
2462805.838000000, A.D. 2030-Oct-31 08:06:43.2000,  3.006900701790938E-04,  1.567614428314005E-04,  2.406122241747629E+01,  8.360651890962569E+01,  7.000342754107346E+01,  2.462805456382396E+06,  2.851407352708238E+02,  1.088147241778633E+02,  1.088473356300826E+02,  1.568085936184203E-04,  1.568557444054402E-04,  1.262534445168193E+00,
2462816.796000000, A.D. 2030-Nov-11 07:06:14.4000,  4.181765236105919E-04,  1.567437454321696E-04,  2.406045752914018E+01,  8.362056802349996E+01,  5.742331222332566E+01,  2.462816774300082E+06,  2.851387556180729E+02,  6.187487585964004E+00,  6.192655142747021E+00,  1.568093194082294E-04,  1.568748933842893E-04,  1.262543210654252E+00,
2462827.754000000, A.D. 2030-Nov-22 06:05:45.6000,  3.049684784208470E-04,  1.567606540162352E-04,  2.405975549654929E+01,  8.363437102058163E+01,  4.429845538201540E+01,  2.462828090304886E+06,  2.851410570187007E+02,  2.641056691878749E+02,  2.640709085018187E+02,  1.568084756584602E-04,  1.568562973006853E-04,  1.262533020547755E+00,
2462838.712000000, A.D. 2030-Dec-03 05:05:16.8000,  2.846061155206738E-04,  1.567640027633889E-04,  2.405933797616316E+01,  8.364720445284496E+01,  6.898057633119257E+01,  2.462838276359370E+06,  2.851406320572527E+02,  1.242188446160335E+02,  1.242458071480900E+02,  1.568086314588685E-04,  1.568532601543481E-04,  1.262534902173172E+00,
2462849.670000000, A.D. 2030-Dec-14 04:04:48.0000,  4.160001813330324E-04,  1.567441073154549E-04,  2.405938660289457E+01,  8.365948590266480E+01,  6.065349192948202E+01,  2.462849609184086E+06,  2.851386993725892E+02,  1.734097063594210E+01,  1.735518612635228E+01,  1.568093400293418E-04,  1.568745727432288E-04,  1.262543459699204E+00,
2462860.628000000, A.D. 2030-Dec-25 03:04:19.2000,  3.232601950719964E-04,  1.567578631864626E-04,  2.405956008447365E+01,  8.367149066736374E+01,  4.430412302288464E+01,  2.462860913873023E+06,  2.851408456526743E+02,  2.784859244709340E+02,  2.784492849391567E+02,  1.568085531499428E-04,  1.568592431134230E-04,  1.262533956424154E+00,
2462871.586000000, A.D. 2031-Jan-05 02:03:50.4000,  2.709449847250225E-04,  1.567661695559819E-04,  2.406022094950258E+01,  8.368289560736460E+01,  6.697847057483781E+01,  2.462871092879537E+06,  2.851405649146027E+02,  1.406086473166124E+02,  1.406283456572843E+02,  1.568086560749069E-04,  1.568511425938318E-04,  1.262535199464927E+00,
2462882.544000000, A.D. 2031-Jan-16 01:03:21.6000,  4.099740022914274E-04,  1.567451009539256E-04,  2.406136203491592E+01,  8.369423559665196E+01,  6.378668292718969E+01,  2.462882443709542E+06,  2.851385665475342E+02,  2.859667758342362E+01,  2.861917404604562E+01,  1.568093887266187E-04,  1.568736764993118E-04,  1.262544047825203E+00,
2462893.502000000, A.D. 2031-Jan-27 00:02:52.8000,  3.413607794767278E-04,  1.567550959931662E-04,  2.406269657330293E+01,  8.370531708569069E+01,  4.506442150305282E+01,  2.462893740073711E+06,  2.851406515636183E+02,  2.921155070933785E+02,  2.920792621781230E+02,  1.568086243073884E-04,  1.568621526216107E-04,  1.262534815803630E+00,
2462904.460000000, A.D. 2031-Feb-06 23:02:24.0000,  2.611969616953759E-04,  1.567677108009226E-04,  2.406463204278914E+01,  8.371636995788710E+01,  6.406633417315093E+01,  2.462903906199455E+06,  2.851405303454205E+02,  1.579109811085625E+02,  1.579222331451717E+02,  1.568086687487673E-04,  1.568496266966120E-04,  1.262535352529135E+00,
2462915.418000000, A.D. 2031-Feb-17 22:01:55.2000,  4.002737041142577E-04,  1.567467000840016E-04,  2.406697211892183E+01,  8.372778393755381E+01,  6.674431830932944E+01,  2.462915277615561E+06,  2.851383536243850E+02,  4.002898773188919E+01,  4.005850018459570E+01,  1.568094667901139E-04,  1.568722334962261E-04,  1.262544990612630E+00,
2462926.376000000, A.D. 2031-Feb-28 21:01:26.4000,  3.583196037898740E-04,  1.567524993788179E-04,  2.406956717157156E+01,  8.373905598474050E+01,  4.642635053200846E+01,  2.462926568386118E+06,  2.851404805486529E+02,  3.051429298118663E+02,  3.051093452984058E+02,  1.568086870054165E-04,  1.568648746320151E-04,  1.262535573017574E+00,
2462937.334000000, A.D. 2031-Mar-11 20:00:57.6000,  2.566452346088715E-04,  1.567684266922280E-04,  2.407274826482751E+01,  8.375098352170546E+01,  6.051671722045559E+01,  2.462936717291434E+06,  2.851405245040267E+02,  1.758486040975885E+02,  1.758507324245865E+02,  1.568086708903574E-04,  1.568489150884867E-04,  1.262535378393456E+00,
2462948.292000000, A.D. 2031-Mar-22 19:00:28.8000,  3.871807142298917E-04,  1.567488599778509E-04,  2.407618203926205E+01,  8.376358383091741E+01,  6.943546788402853E+01,  2.462948110600172E+06,  2.851380622379669E+02,  5.172399566597267E+01,  5.175883629894351E+01,  1.568095736205634E-04,  1.568702872632759E-04,  1.262546280824325E+00,
2462959.250000000, A.D. 2031-Apr-02 18:00:00.0000,  3.734321008896264E-04,  1.567501840118392E-04,  2.407988758533373E+01,  8.377627540591916E+01,  4.824012005085854E+01,  2.462959398302418E+06,  2.851403321015708E+02,  3.177129992174903E+02,  3.176841967906158E+02,  1.568087414295892E-04,  1.568672988473391E-04,  1.262536230306988E+00,
2462970.208000000, A.D. 2031-Apr-13 16:59:31.2000,  2.580139810793051E-04,  1.567682051773168E-04,  2.408400765895452E+01,  8.379027771039746E+01,  5.679422330979853E+01,  2.462970790337617E+06,  2.851405432845469E+02,  1.939519355353859E+02,  1.939448091173597E+02,  1.568086640049844E-04,  1.568491228326521E-04,  1.262535295237722E+00,
2462981.166000000, A.D. 2031-Apr-24 15:59:02.4000,  3.711059949683032E-04,  1.567515127281718E-04,  2.408816074861230E+01,  8.380510502236351E+01,  7.175064588204829E+01,  2.462980942296559E+06,  2.851377018476182E+02,  6.378628515586224E+01,  6.382444494040093E+01,  1.568097057500448E-04,  1.568678987719179E-04,  1.262547876577855E+00,
